IRIDIUM 136             
1 42962U 17061H   24129.14864277  .00000436  00000+0  14869-3 0  9998
2 42962  86.3983 347.0631 0002435  83.7629 276.3844 14.34220072344465
